[
    {
        "Altitude(m)": 559726.6498791112,
        "Argument of Periapsis(deg)": 0.0,
        "Eccentricity": 0.0,
        "Inclination(deg)": 53.0,
        "Latitude(deg)": 52.38316084612845,
        "Longitude(deg)": -31.517698435760657,
        "Mean Anomaly(deg)": -261.8182,
        "RAAN(deg)": 325.0,
        "Satellite Name": "Starlink Shell 1 1436",
        "Satellite Number": 1436,
        "Semi-Major Axis(m)": 6931778.249405717,
        "Time(s)": 0
    },
    {
        "Altitude(m)": 559699.2101305882,
        "Argument of Periapsis(deg)": 0.00034857847951123687,
        "Eccentricity": 0.0,
        "Inclination(deg)": 53.0,
        "Latitude(deg)": 52.2624025023475,
        "Longitude(deg)": -30.55537154364996,
        "Mean Anomaly(deg)": -261.19136879644327,
        "RAAN(deg)": 324.9994812299225,
        "Satellite Name": "Starlink Shell 1 1436",
        "Satellite Number": 1436,
        "Semi-Major Axis(m)": 6931778.249405717,
        "Time(s)": 10
    },
    {
        "Altitude(m)": 559669.8226491455,
        "Argument of Periapsis(deg)": 0.0006971569590224737,
        "Eccentricity": 0.0,
        "Inclination(deg)": 53.0,
        "Latitude(deg)": 52.133162230405595,
        "Longitude(deg)": -29.59866820474696,
        "Mean Anomaly(deg)": -260.5645375928866,
        "RAAN(deg)": 324.9989624598451,
        "Satellite Name": "Starlink Shell 1 1436",
        "Satellite Number": 1436,
        "Semi-Major Axis(m)": 6931778.249405717,
        "Time(s)": 20
    },
    {
        "Altitude(m)": 559638.5051668471,
        "Argument of Periapsis(deg)": 0.0010457354385337105,
        "Eccentricity": 0.0,
        "Inclination(deg)": 53.0,
        "Latitude(deg)": 51.99552750446477,
        "Longitude(deg)": -28.64790568808177,
        "Mean Anomaly(deg)": -259.93770638932983,
        "RAAN(deg)": 324.99844368976756,
        "Satellite Name": "Starlink Shell 1 1436",
        "Satellite Number": 1436,
        "Semi-Major Axis(m)": 6931778.249405717,
        "Time(s)": 30
    },
    {
        "Altitude(m)": 559605.2765887945,
        "Argument of Periapsis(deg)": 0.0013943139180449475,
        "Eccentricity": 0.0,
        "Inclination(deg)": 53.0,
        "Latitude(deg)": 51.84959018750018,
        "Longitude(deg)": -27.703385568326805,
        "Mean Anomaly(deg)": -259.3108751857731,
        "RAAN(deg)": 324.99792491969004,
        "Satellite Name": "Starlink Shell 1 1436",
        "Satellite Number": 1436,
        "Semi-Major Axis(m)": 6931778.249405717,
        "Time(s)": 40
    },
    {
        "Altitude(m)": 559570.1569838739,
        "Argument of Periapsis(deg)": 0.0017428923975561844,
        "Eccentricity": 0.0,
        "Inclination(deg)": 53.0,
        "Latitude(deg)": 51.695446253632646,
        "Longitude(deg)": -26.7653943164655,
        "Mean Anomaly(deg)": -258.68404398221645,
        "RAAN(deg)": 324.99740614961263,
        "Satellite Name": "Starlink Shell 1 1436",
        "Satellite Number": 1436,
        "Semi-Major Axis(m)": 6931778.249405717,
        "Time(s)": 50
    },
    {
        "Altitude(m)": 559533.1675749847,
        "Argument of Periapsis(deg)": 0.002091470877067421,
        "Eccentricity": 0.0,
        "Inclination(deg)": 53.0,
        "Latitude(deg)": 51.53319550565981,
        "Longitude(deg)": -25.834202463969888,
        "Mean Anomaly(deg)": -258.05721277865973,
        "RAAN(deg)": 324.99688737953517,
        "Satellite Name": "Starlink Shell 1 1436",
        "Satellite Number": 1436,
        "Semi-Major Axis(m)": 6931778.249405717,
        "Time(s)": 60
    },
    {
        "Altitude(m)": 559494.3307286224,
        "Argument of Periapsis(deg)": 0.0024400493565786582,
        "Eccentricity": 0.0,
        "Inclination(deg)": 53.0,
        "Latitude(deg)": 51.36294128953231,
        "Longitude(deg)": -24.910063851806516,
        "Mean Anomaly(deg)": -257.430381575103,
        "RAAN(deg)": 324.99636860945765,
        "Satellite Name": "Starlink Shell 1 1436",
        "Satellite Number": 1436,
        "Semi-Major Axis(m)": 6931778.249405717,
        "Time(s)": 70
    },
    {
        "Altitude(m)": 559453.669943968,
        "Argument of Periapsis(deg)": 0.002788627836089895,
        "Eccentricity": 0.0,
        "Inclination(deg)": 53.0,
        "Latitude(deg)": 51.18479020744778,
        "Longitude(deg)": -23.99321647478622,
        "Mean Anomaly(deg)": -256.8035503715463,
        "RAAN(deg)": 324.99584983938024,
        "Satellite Name": "Starlink Shell 1 1436",
        "Satellite Number": 1436,
        "Semi-Major Axis(m)": 6931778.249405717,
        "Time(s)": 80
    },
    {
        "Altitude(m)": 559411.209841366,
        "Argument of Periapsis(deg)": 0.0031372063156011316,
        "Eccentricity": 0.0,
        "Inclination(deg)": 53.0,
        "Latitude(deg)": 50.9988518311663,
        "Longitude(deg)": -23.08388189251963,
        "Mean Anomaly(deg)": -256.17671916798963,
        "RAAN(deg)": 324.9953310693027,
        "Satellite Name": "Starlink Shell 1 1436",
        "Satellite Number": 1436,
        "Semi-Major Axis(m)": 6931778.249405717,
        "Time(s)": 90
    },
    {
        "Altitude(m)": 559366.9761502827,
        "Argument of Periapsis(deg)": 0.0034857847951123688,
        "Eccentricity": 0.0,
        "Inclination(deg)": 53.0,
        "Latitude(deg)": 50.805238417055556,
        "Longitude(deg)": -22.182264716301166,
        "Mean Anomaly(deg)": -255.54988796443283,
        "RAAN(deg)": 324.99481229922526,
        "Satellite Name": "Starlink Shell 1 1436",
        "Satellite Number": 1436,
        "Semi-Major Axis(m)": 6931778.249405717,
        "Time(s)": 100
    },
    {
        "Altitude(m)": 559320.9956966891,
        "Argument of Periapsis(deg)": 0.003834363274623606,
        "Eccentricity": 0.0,
        "Inclination(deg)": 53.0,
        "Latitude(deg)": 50.604064624273136,
        "Longitude(deg)": -21.288553680759986,
        "Mean Anomaly(deg)": -254.9230567608761,
        "RAAN(deg)": 324.9942935291478,
        "Satellite Name": "Starlink Shell 1 1436",
        "Satellite Number": 1436,
        "Semi-Major Axis(m)": 6931778.249405717,
        "Time(s)": 110
    },
    {
        "Altitude(m)": 559273.2963899237,
        "Argument of Periapsis(deg)": 0.004182941754134842,
        "Eccentricity": 0.0,
        "Inclination(deg)": 53.0,
        "Latitude(deg)": 50.395447237396375,
        "Longitude(deg)": -20.402921270114362,
        "Mean Anomaly(deg)": -254.29622555731947,
        "RAAN(deg)": 324.9937747590703,
        "Satellite Name": "Starlink Shell 1 1436",
        "Satellite Number": 1436,
        "Semi-Major Axis(m)": 6931778.249405717,
        "Time(s)": 120
    },
    {
        "Altitude(m)": 559223.9072089951,
        "Argument of Periapsis(deg)": 0.004531520233646079,
        "Eccentricity": 0.0,
        "Inclination(deg)": 53.0,
        "Latitude(deg)": 50.17950489468613,
        "Longitude(deg)": -19.52552340715587,
        "Mean Anomaly(deg)": -253.6693943537627,
        "RAAN(deg)": 324.9932559889928,
        "Satellite Name": "Starlink Shell 1 1436",
        "Satellite Number": 1436,
        "Semi-Major Axis(m)": 6931778.249405717,
        "Time(s)": 130
    },
    {
        "Altitude(m)": 559172.8581883594,
        "Argument of Periapsis(deg)": 0.0048800987131573164,
        "Eccentricity": 0.0,
        "Inclination(deg)": 53.0,
        "Latitude(deg)": 49.956357823057225,
        "Longitude(deg)": -18.656500712869217,
        "Mean Anomaly(deg)": -253.04256315020595,
        "RAAN(deg)": 324.9927372189154,
        "Satellite Name": "Starlink Shell 1 1436",
        "Satellite Number": 1436,
        "Semi-Major Axis(m)": 6931778.249405717,
        "Time(s)": 140
    },
    {
        "Altitude(m)": 559120.1804031822,
        "Argument of Periapsis(deg)": 0.005228677192668553,
        "Eccentricity": 0.0,
        "Inclination(deg)": 53.0,
        "Latitude(deg)": 49.726127580714525,
        "Longitude(deg)": -17.7959783058141,
        "Mean Anomaly(deg)": -252.4157319466493,
        "RAAN(deg)": 324.9922184488379,
        "Satellite Name": "Starlink Shell 1 1436",
        "Satellite Number": 1436,
        "Semi-Major Axis(m)": 6931778.249405717,
        "Time(s)": 150
    },
    {
        "Altitude(m)": 559065.9059540482,
        "Argument of Periapsis(deg)": 0.00557725567217979,
        "Eccentricity": 0.0,
        "Inclination(deg)": 53.0,
        "Latitude(deg)": 49.48893680828619,
        "Longitude(deg)": -16.94406564892085,
        "Mean Anomaly(deg)": -251.7889007430926,
        "RAAN(deg)": 324.99169967876037,
        "Satellite Name": "Starlink Shell 1 1436",
        "Satellite Number": 1436,
        "Semi-Major Axis(m)": 6931778.249405717,
        "Time(s)": 160
    },
    {
        "Altitude(m)": 559010.0679512031,
        "Argument of Periapsis(deg)": 0.0059258341516910265,
        "Eccentricity": 0.0,
        "Inclination(deg)": 53.0,
        "Latitude(deg)": 49.24490898916926,
        "Longitude(deg)": -16.100857951347628,
        "Mean Anomaly(deg)": -251.16206953953585,
        "RAAN(deg)": 324.99118090868296,
        "Satellite Name": "Starlink Shell 1 1436",
        "Satellite Number": 1436,
        "Semi-Major Axis(m)": 6931778.249405717,
        "Time(s)": 170
    },
    {
        "Altitude(m)": 558952.700498234,
        "Argument of Periapsis(deg)": 0.006274412631202263,
        "Eccentricity": 0.0,
        "Inclination(deg)": 53.0,
        "Latitude(deg)": 48.99416821969242,
        "Longitude(deg)": -15.266436094458781,
        "Mean Anomaly(deg)": -250.53523833597913,
        "RAAN(deg)": 324.9906621386055,
        "Satellite Name": "Starlink Shell 1 1436",
        "Satellite Number": 1436,
        "Semi-Major Axis(m)": 6931778.249405717,
        "Time(s)": 180
    }
]